COSMOS 2433 (720)       
1 32275U 07052A   23280.34986302 -.00000088  00000+0  00000+0 0  9998
2 32275  66.0126 348.8382 0004746 232.8428 127.1701  2.13104193124097
COSMOS 2432 (719)       
1 32276U 07052B   23281.30846187 -.00000084  00000+0  00000+0 0  9998
2 32276  66.0268 348.9156 0009278 313.2081   9.1651  2.13103344124145
COSMOS 2434 (721)       
1 32393U 07065A   23280.71093478 -.00000005  00000+0  00000+0 0  9996
2 32393  64.3338 225.1723 0001327  68.1660 100.1342  2.13103099122814
COSMOS 2436 (723)       
1 32395U 07065C   23281.24980528 -.00000011  00000+0  00000+0 0  9995
2 32395  64.3424 225.2159 0016138 356.5988   0.5839  2.13102761122784
COSMOS 2456 (730)       
1 36111U 09070A   23281.42841389  .00000064  00000+0  00000+0 0  9991
2 36111  64.5049 104.6352 0001410 340.4335 176.9795  2.13099248107528
COSMOS 2457 (733)       
1 36112U 09070B   23281.30458341  .00000063  00000+0  00000+0 0  9990
2 36112  64.4893 104.5039 0006455 146.9370  46.5319  2.13101423107521
COSMOS 2460 (732)       
1 36402U 10007C   23281.11412128 -.00000083  00000+0  00000+0 0  9999
2 36402  65.8742 347.5224 0001910 222.7254 173.4137  2.13106374105875
COSMOS 2476 (744)       
1 37867U 11064A   23280.84953176  .00000059  00000+0  00000+0 0  9993
2 37867  64.7839 106.1950 0021280 230.3500 112.5676  2.13101818 92800
COSMOS 2477 (745)       
1 37868U 11064B   23281.26920918  .00000064  00000+0  00000+0 0  9995
2 37868  64.7917 106.2505 0018477 230.4815 252.2677  2.13101696 92828
COSMOS 2475 (743)       
1 37869U 11064C   23280.61345444  .00000056  00000+0  00000+0 0  9990
2 37869  64.7983 106.2854 0022425 249.0392  49.1553  2.13102007 92804
COSMOS 2485 (747)       
1 39155U 13019A   23280.34450181  .00000053  00000+0  00000+0 0  9994
2 39155  64.9438 106.7430 0021824 226.3824 133.4911  2.13101961 81313
COSMOS 2492 (754)       
1 39620U 14012A   23281.23852970 -.00000082  00000+0  00000+0 0  9999
2 39620  65.7576 347.1319 0012454 311.8330  48.1198  2.13103239 74298
COSMOS 2500 (755)       
1 40001U 14032A   23281.42136933 -.00000081  00000+0  00000+0 0  9990
2 40001  65.6956 346.9505 0008525 207.8293 152.1843  2.13106052 72516
COSMOS 2501 (702K)      
1 40315U 14075A   23281.20237770 -.00000012  00000+0  00000+0 0  9996
2 40315  63.6368 224.4798 0019420 209.9538 149.9264  2.13101308 68902
COSMOS 2514 (751)       
1 41330U 16008A   23280.71458082 -.00000084  00000+0  00000+0 0  9997
2 41330  65.4928 346.5473 0012396 213.2307 146.7497  2.13102574 59667
COSMOS 2522 (752)       
1 42939U 17055A   23280.55616775 -.00000004  00000+0  00000+0 0  9995
2 42939  64.0976 225.4474 0008712 242.7722 117.1308  2.13102025 47012
COSMOS 2527 (756)       
1 43508U 18053A   23280.04564541  .00000050  00000+0  00000+0 0  9994
2 43508  65.1049 106.8523 0007522 213.4742 146.5325  2.13102510 41300
COSMOS 2529 (757)       
1 43687U 18086A   23281.08342890 -.00000008  00000+0  00000+0 0  9998
2 43687  64.3129 225.8739 0010400 263.7239  96.1482  2.13102073 38334
COSMOS 2534 (758)       
1 44299U 19030A   23280.59928316 -.00000003  00000+0  00000+0 0  9991
2 44299  64.3858 225.8198 0012713 283.7554 198.9567  2.13101980 33968
COSMOS 2544 (759)       
1 44850U 19088A   23280.45867101  .00000055  00000+0  00000+0 0  9992
2 44850  65.0912 106.6807 0011137 248.4221 111.5142  2.13102271 29757
COSMOS 2545 (760)       
1 45358U 20018A   23280.65550930 -.00000085  00000+0  00000+0 0  9996
2 45358  64.8331 346.7672 0011143 241.5258 118.4196  2.13102644 27703
COSMOS 2547 (705K)      
1 46805U 20075A   23281.31356144 -.00000011  00000+0  00000+0 0  9991
2 46805  64.6132 225.3618 0007790 243.5242 116.3864  2.13102831 22968
COSMOS 2557 (706K)      
1 52984U 22075A   23281.00709251 -.00000087  00000+0  00000+0 0  9998
2 52984  64.7507 348.9107 0012872 275.3019  84.6077  2.13102383  9743
COSMOS 2559 (707K)      
1 54031U 22130A   23280.47992315 -.00000089  00000+0  00000+0 0  9992
2 54031  64.7221 349.0554 0007717 222.9835 137.0116  2.13101555  7728
COSMOS 2564 (761)       
1 54377U 22161A   23281.14210032 -.00000009  00000+0  00000+0 0  9995
2 54377  64.7539 225.4267 0009906 224.0614 135.8506  2.13102222  6686
COSMOS 2569 (703K)      
1 57517U 23114A   23280.22311458  .00000051  00000+0  00000+0 0  9991
2 57517  64.8143 105.9305 0008606 296.4091  63.5561  2.13104132  1292
